     3.00           N                   E                   RINEX VERSION / TYPE
BRD_USR             ESA                 20190107 041824  UTCPGM / RUN BY / DATE
 GAL   5.1250E+01  3.1250E-02 -4.3335E-03  0.0000E+00       IONOSPHERIC CORR
GAUT  0.0000000000E+00 0.000000000E+00  86400 2035 GSTB   0 TIME SYSTEM CORR
GPGA -2.1245796233E-09 4.440892099E-15  86400 2035 GSTB   0 TIME SYSTEM CORR
                                                            END OF HEADER
E01 2019 01 07 02 00 00-5.153667880222E-04-8.057554623520E-12 0.000000000000E+00
     2.800000000000E+01 1.105312500000E+02 2.335811581642E-09-3.011045365440E+00
     5.306676030159E-06 1.133552286774E-04 1.143850386143E-05 5.440633018494E+03
     9.360000000000E+04-5.587935447693E-08-2.946725399855E+00 7.450580596924E-08
     9.903383117715E-01 1.114375000000E+02-8.603722292711E-01-5.094497920573E-09
    -1.878649681871E-10 5.210000000000E+02 2.035000000000E+03 0.000000000000E+00
     3.120000000000E+00 0.000000000000E+00-4.656612873077E-09-5.355104804039E-09
     9.437500000000E+04 0.000000000000E+00 0.000000000000E+00 0.000000000000E+00
E01 2019 01 07 02 00 00-5.153665551916E-04-8.043343768804E-12 0.000000000000E+00
     2.800000000000E+01 1.105312500000E+02 2.335811581642E-09-3.011045365440E+00
     5.306676030159E-06 1.133552286774E-04 1.143850386143E-05 5.440633018494E+03
     9.360000000000E+04-5.587935447693E-08-2.946725399855E+00 7.450580596924E-08
     9.903383117715E-01 1.114375000000E+02-8.603722292711E-01-5.094497920573E-09
    -1.878649681871E-10 2.580000000000E+02 2.035000000000E+03 0.000000000000E+00
     3.120000000000E+00 0.000000000000E+00-4.656612873077E-09 0.000000000000E+00
     9.440000000000E+04 0.000000000000E+00 0.000000000000E+00 0.000000000000E+00
E33 2019 01 07 01 50 00 8.478736854158E-04 5.684341886081E-14 0.000000000000E+00
     2.700000000000E+01-1.503750000000E+02 2.891191858317E-09 1.747346712416E+00
    -7.035210728645E-06 3.565567312762E-04 9.201467037201E-07 5.440600494385E+03
     9.300000000000E+04-3.911554813385E-08-8.664555809985E-01-3.352761268616E-08
     9.851807341034E-01 3.277500000000E+02-1.505133936378E+00-5.729167214239E-09
    -4.060883437809E-10 2.580000000000E+02 2.035000000000E+03 0.000000000000E+00
     3.120000000000E+00 5.600000000000E+01-8.149072527885E-09 0.000000000000E+00
     9.440000000000E+04 0.000000000000E+00 0.000000000000E+00 0.000000000000E+00
E05 2019 01 07 02 00 00 1.294193789363E-04-6.551204023708E-12 0.000000000000E+00
     2.800000000000E+01 3.346875000000E+01 3.569077237821E-09 5.790953199988E-01
     1.538544893265E-06 1.424989895895E-04 5.939975380898E-06 5.440606441498E+03
     9.360000000000E+04 6.519258022308E-08 1.244035524307E+00-3.725290298462E-09
     9.522439527829E-01 2.081875000000E+02 1.567271131636E+00-5.660950087008E-09
     5.571660653459E-10 5.210000000000E+02 2.035000000000E+03 0.000000000000E+00
     3.120000000000E+00 0.000000000000E+00-1.396983861923E-09-1.629814505577E-09
     9.443500000000E+04 0.000000000000E+00 0.000000000000E+00 0.000000000000E+00
E30 2019 01 07 02 00 00 5.208839720581E-03-3.049649421882E-11 0.000000000000E+00
     2.800000000000E+01 1.168750000000E+02 2.381527771619E-09-2.010575301446E+00
     5.370005965233E-06 2.963816514239E-04 1.295655965805E-05 5.440624870300E+03
     9.360000000000E+04-1.490116119385E-08-2.943311060240E+00-3.166496753693E-08
     9.878905396863E-01 7.271875000000E+01 4.931037167091E-01-5.069139721445E-09
    -2.332240004300E-10 5.210000000000E+02 2.035000000000E+03 0.000000000000E+00
     3.120000000000E+00 0.000000000000E+00-3.026798367500E-09-3.492459654808E-09
     9.443500000000E+04 0.000000000000E+00 0.000000000000E+00 0.000000000000E+00
E31 2019 01 07 02 00 00 9.391061030328E-04-9.677592061053E-12 0.000000000000E+00
     2.800000000000E+01 1.350000000000E+02 2.391171030443E-09-3.104050078042E+00
     6.251037120819E-06 2.577828709036E-04 1.159496605396E-05 5.440632625580E+03
     9.360000000000E+04 1.303851604462E-08-2.949364590382E+00 2.793967723846E-08
     9.898776096100E-01 1.048125000000E+02-1.535027028860E+00-5.033781105760E-09
    -1.671498196038E-10 5.210000000000E+02 2.035000000000E+03 0.000000000000E+00
     3.120000000000E+00 0.000000000000E+00 0.000000000000E+00-2.328306436539E-10
     9.443500000000E+04 0.000000000000E+00 0.000000000000E+00 0.000000000000E+00
E05 2019 01 07 02 00 00 1.294188550673E-04-6.551204023708E-12 0.000000000000E+00
     2.800000000000E+01 3.346875000000E+01 3.569077237821E-09 5.790953199988E-01
     1.538544893265E-06 1.424989895895E-04 5.939975380898E-06 5.440606441498E+03
     9.360000000000E+04 6.519258022308E-08 1.244035524307E+00-3.725290298462E-09
     9.522439527829E-01 2.081875000000E+02 1.567271131636E+00-5.660950087008E-09
     5.571660653459E-10 2.580000000000E+02 2.035000000000E+03 0.000000000000E+00
     3.120000000000E+00 0.000000000000E+00-1.396983861923E-09 0.000000000000E+00
     9.445000000000E+04 0.000000000000E+00 0.000000000000E+00 0.000000000000E+00
E30 2019 01 07 02 00 00 5.208839836996E-03-3.049649421882E-11 0.000000000000E+00
     2.800000000000E+01 1.168750000000E+02 2.381527771619E-09-2.010575301446E+00
     5.370005965233E-06 2.963816514239E-04 1.295655965805E-05 5.440624870300E+03
     9.360000000000E+04-1.490116119385E-08-2.943311060240E+00-3.166496753693E-08
     9.878905396863E-01 7.271875000000E+01 4.931037167091E-01-5.069139721445E-09
    -2.332240004300E-10 2.580000000000E+02 2.035000000000E+03 0.000000000000E+00
     3.120000000000E+00 0.000000000000E+00-3.026798367500E-09 0.000000000000E+00
     9.445000000000E+04 0.000000000000E+00 0.000000000000E+00 0.000000000000E+00
E31 2019 01 07 02 00 00 9.391054627486E-04-9.691802915768E-12 0.000000000000E+00
     2.800000000000E+01 1.350000000000E+02 2.391171030443E-09-3.104050078042E+00
     6.251037120819E-06 2.577828709036E-04 1.159496605396E-05 5.440632625580E+03
     9.360000000000E+04 1.303851604462E-08-2.949364590382E+00 2.793967723846E-08
     9.898776096100E-01 1.048125000000E+02-1.535027028860E+00-5.033781105760E-09
    -1.671498196038E-10 2.580000000000E+02 2.035000000000E+03 0.000000000000E+00
     3.120000000000E+00 0.000000000000E+00 0.000000000000E+00 0.000000000000E+00
     9.445000000000E+04 0.000000000000E+00 0.000000000000E+00 0.000000000000E+00
E04 2019 01 07 02 00 00-1.948021817952E-04-7.887024366937E-12 0.000000000000E+00
     2.800000000000E+01 3.881250000000E+01 3.519432312768E-09 1.709814236855E+00
     1.849606633186E-06 8.044263813645E-05 5.785375833511E-06 5.440605817795E+03
     9.360000000000E+04-7.450580596924E-09 1.244102293351E+00 6.705522537231E-08
     9.522740698773E-01 2.128125000000E+02 2.009766947043E+00-5.674164923173E-09
     5.721666901821E-10 5.210000000000E+02 2.035000000000E+03 0.000000000000E+00
     3.120000000000E+00 0.000000000000E+00-7.916241884232E-09-8.847564458847E-09
     9.449500000000E+04 0.000000000000E+00 0.000000000000E+00 0.000000000000E+00
E14 2019 01 07 02 00 00 6.463655561674E-03-5.556444193644E-12 0.000000000000E+00
     2.800000000000E+01 8.656250000000E+00 6.730280343191E-09 7.905036714224E-02
     1.378357410431E-07 1.663827608572E-01 5.597248673439E-06 5.289325805664E+03
     9.360000000000E+04-3.296881914139E-06-1.461855020586E+00-1.011416316032E-06
     8.825375828099E-01 2.549375000000E+02 1.453765610259E+00-1.120510959493E-08
    -1.778645516296E-10 5.210000000000E+02 2.035000000000E+03 0.000000000000E+00
     3.120000000000E+00 4.550000000000E+02 3.329478204250E-08 3.748573362827E-08
     9.449500000000E+04 0.000000000000E+00 0.000000000000E+00 0.000000000000E+00
E04 2019 01 07 02 00 00-1.948017743416E-04-7.901235221652E-12 0.000000000000E+00
     2.800000000000E+01 3.881250000000E+01 3.519432312768E-09 1.709814236855E+00
     1.849606633186E-06 8.044263813645E-05 5.785375833511E-06 5.440605817795E+03
     9.360000000000E+04-7.450580596924E-09 1.244102293351E+00 6.705522537231E-08
     9.522740698773E-01 2.128125000000E+02 2.009766947043E+00-5.674164923173E-09
     5.721666901821E-10 2.580000000000E+02 2.035000000000E+03 0.000000000000E+00
     3.120000000000E+00 0.000000000000E+00-7.916241884232E-09 0.000000000000E+00
     9.450000000000E+04 0.000000000000E+00 0.000000000000E+00 0.000000000000E+00
E14 2019 01 07 02 00 00 6.463651079684E-03-5.556444193644E-12 0.000000000000E+00
     2.800000000000E+01 8.656250000000E+00 6.730280343191E-09 7.905036714224E-02
     1.378357410431E-07 1.663827608572E-01 5.597248673439E-06 5.289325805664E+03
     9.360000000000E+04-3.296881914139E-06-1.461855020586E+00-1.011416316032E-06
     8.825375828099E-01 2.549375000000E+02 1.453765610259E+00-1.120510959493E-08
    -1.778645516296E-10 2.580000000000E+02 2.035000000000E+03 0.000000000000E+00
     3.120000000000E+00 5.600000000000E+01 3.329478204250E-08 0.000000000000E+00
     9.450000000000E+04 0.000000000000E+00 0.000000000000E+00 0.000000000000E+00
E33 2019 01 07 01 50 00 8.478729869239E-04 5.684341886081E-14 0.000000000000E+00
     2.700000000000E+01-1.503750000000E+02 2.891191858317E-09 1.747346712416E+00
    -7.035210728645E-06 3.565567312762E-04 9.201467037201E-07 5.440600494385E+03
     9.300000000000E+04-3.911554813385E-08-8.664555809985E-01-3.352761268616E-08
     9.851807341034E-01 3.277500000000E+02-1.505133936378E+00-5.729167214239E-09
    -4.060883437809E-10 5.210000000000E+02 2.035000000000E+03 0.000000000000E+00
     3.120000000000E+00 4.550000000000E+02-8.149072527885E-09-9.080395102501E-09
     9.455500000000E+04 0.000000000000E+00 0.000000000000E+00 0.000000000000E+00
